CCSDS_OMM_VERS = 2.0
CREATION_DATE  = 
ORIGINATOR     = 

OBJECT_NAME    = STARLINK-36455
OBJECT_ID      = 2026-005Q
CENTER_NAME    = EARTH
REF_FRAME      = TEME
TIME_SYSTEM    = UTC
MEAN_ELEMENT_THEORY = SGP/SGP4

EPOCH          = 2026-02-05T10:40:14.805120
MEAN_MOTION    = 15.50633431
ECCENTRICITY   = .0001313
INCLINATION    = 42.9997
RA_OF_ASC_NODE = 62.8029
ARG_OF_PERICENTER = 266.7044
MEAN_ANOMALY   = 93.3666

EPHEMERIS_TYPE = 0
CLASSIFICATION_TYPE = U
NORAD_CAT_ID   = 67418
ELEMENT_SET_NO = 999
REV_AT_EPOCH   = 373
BSTAR          = .17786E-2
MEAN_MOTION_DOT = .105621E-2
MEAN_MOTION_DDOT = 0

CCSDS_OMM_VERS = 2.0
CREATION_DATE  = 
ORIGINATOR     = 

OBJECT_NAME    = STARLINK-36424
OBJECT_ID      = 2026-005R
CENTER_NAME    = EARTH
REF_FRAME      = TEME
TIME_SYSTEM    = UTC
MEAN_ELEMENT_THEORY = SGP/SGP4

EPOCH          = 2026-02-05T10:39:45.319392
MEAN_MOTION    = 15.50634885
ECCENTRICITY   = .0001153
INCLINATION    = 42.9992
RA_OF_ASC_NODE = 62.8009
ARG_OF_PERICENTER = 271.0039
MEAN_ANOMALY   = 89.0689

EPHEMERIS_TYPE = 0
CLASSIFICATION_TYPE = U
NORAD_CAT_ID   = 67419
ELEMENT_SET_NO = 999
REV_AT_EPOCH   = 373
BSTAR          = .20608E-2
MEAN_MOTION_DOT = .122712E-2
MEAN_MOTION_DDOT = 0

CCSDS_OMM_VERS = 2.0
CREATION_DATE  = 
ORIGINATOR     = 

OBJECT_NAME    = STARLINK-35564
OBJECT_ID      = 2026-005S
CENTER_NAME    = EARTH
REF_FRAME      = TEME
TIME_SYSTEM    = UTC
MEAN_ELEMENT_THEORY = SGP/SGP4

EPOCH          = 2026-02-05T10:39:15.642720
MEAN_MOTION    = 15.50618663
ECCENTRICITY   = .0001365
INCLINATION    = 42.9998
RA_OF_ASC_NODE = 62.7987
ARG_OF_PERICENTER = 271.4690
MEAN_ANOMALY   = 88.6014

EPHEMERIS_TYPE = 0
CLASSIFICATION_TYPE = U
NORAD_CAT_ID   = 67420
ELEMENT_SET_NO = 999
REV_AT_EPOCH   = 373
BSTAR          = .11553E-2
MEAN_MOTION_DOT = .6812E-3
MEAN_MOTION_DDOT = 0

CCSDS_OMM_VERS = 2.0
CREATION_DATE  = 
ORIGINATOR     = 

OBJECT_NAME    = STARLINK-36431
OBJECT_ID      = 2026-005T
CENTER_NAME    = EARTH
REF_FRAME      = TEME
TIME_SYSTEM    = UTC
MEAN_ELEMENT_THEORY = SGP/SGP4

EPOCH          = 2026-02-05T12:00:01.999296
MEAN_MOTION    = 15.40611294
ECCENTRICITY   = .0001139
INCLINATION    = 43.0006
RA_OF_ASC_NODE = 62.6138
ARG_OF_PERICENTER = 282.6074
MEAN_ANOMALY   = 333.1355

EPHEMERIS_TYPE = 0
CLASSIFICATION_TYPE = U
NORAD_CAT_ID   = 67421
ELEMENT_SET_NO = 999
REV_AT_EPOCH   = 480
BSTAR          = .36248E-2
MEAN_MOTION_DOT = .153751E-2
MEAN_MOTION_DDOT = 0

CCSDS_OMM_VERS = 2.0
CREATION_DATE  = 
ORIGINATOR     = 

OBJECT_NAME    = STARLINK-36418
OBJECT_ID      = 2026-005U
CENTER_NAME    = EARTH
REF_FRAME      = TEME
TIME_SYSTEM    = UTC
MEAN_ELEMENT_THEORY = SGP/SGP4

EPOCH          = 2026-02-05T10:38:16.481184
MEAN_MOTION    = 15.50637738
ECCENTRICITY   = .0001157
INCLINATION    = 42.9996
RA_OF_ASC_NODE = 62.7931
ARG_OF_PERICENTER = 275.6384
MEAN_ANOMALY   = 84.4345

EPHEMERIS_TYPE = 0
CLASSIFICATION_TYPE = U
NORAD_CAT_ID   = 67422
ELEMENT_SET_NO = 999
REV_AT_EPOCH   = 373
BSTAR          = .23478E-2
MEAN_MOTION_DOT = .14018E-2
MEAN_MOTION_DDOT = 0

CCSDS_OMM_VERS = 2.0
CREATION_DATE  = 
ORIGINATOR     = 

OBJECT_NAME    = STARLINK-36465
OBJECT_ID      = 2026-005V
CENTER_NAME    = EARTH
REF_FRAME      = TEME
TIME_SYSTEM    = UTC
MEAN_ELEMENT_THEORY = SGP/SGP4

EPOCH          = 2026-02-05T12:00:01.999296
MEAN_MOTION    = 15.40550136
ECCENTRICITY   = .0001461
INCLINATION    = 43.0001
RA_OF_ASC_NODE = 62.5528
ARG_OF_PERICENTER = 314.7833
MEAN_ANOMALY   = 325.8302

EPHEMERIS_TYPE = 0
CLASSIFICATION_TYPE = U
NORAD_CAT_ID   = 67423
ELEMENT_SET_NO = 999
REV_AT_EPOCH   = 475
BSTAR          = .33627E-2
MEAN_MOTION_DOT = .142102E-2
MEAN_MOTION_DDOT = 0

CCSDS_OMM_VERS = 2.0
CREATION_DATE  = 
ORIGINATOR     = 

OBJECT_NAME    = STARLINK-36362
OBJECT_ID      = 2026-005W
CENTER_NAME    = EARTH
REF_FRAME      = TEME
TIME_SYSTEM    = UTC
MEAN_ELEMENT_THEORY = SGP/SGP4

EPOCH          = 2026-02-05T12:00:01.999296
MEAN_MOTION    = 15.43504870
ECCENTRICITY   = .0000706
INCLINATION    = 43.0000
RA_OF_ASC_NODE = 62.5027
ARG_OF_PERICENTER = 314.8036
MEAN_ANOMALY   = 347.2103

EPHEMERIS_TYPE = 0
CLASSIFICATION_TYPE = U
NORAD_CAT_ID   = 67424
ELEMENT_SET_NO = 999
REV_AT_EPOCH   = 501
BSTAR          = -.40419E-1
MEAN_MOTION_DOT = -.1657915E-1
MEAN_MOTION_DDOT = 0

CCSDS_OMM_VERS = 2.0
CREATION_DATE  = 
ORIGINATOR     = 

OBJECT_NAME    = STARLINK-36447
OBJECT_ID      = 2026-005X
CENTER_NAME    = EARTH
REF_FRAME      = TEME
TIME_SYSTEM    = UTC
MEAN_ELEMENT_THEORY = SGP/SGP4

EPOCH          = 2026-02-05T12:00:01.999296
MEAN_MOTION    = 15.46523699
ECCENTRICITY   = .0001003
INCLINATION    = 43.0001
RA_OF_ASC_NODE = 62.4648
ARG_OF_PERICENTER = 279.6456
MEAN_ANOMALY   = 37.0056

EPHEMERIS_TYPE = 0
CLASSIFICATION_TYPE = U
NORAD_CAT_ID   = 67425
ELEMENT_SET_NO = 999
REV_AT_EPOCH   = 501
BSTAR          = -.44231E-1
MEAN_MOTION_DOT = -.2006851E-1
MEAN_MOTION_DDOT = 0

CCSDS_OMM_VERS = 2.0
CREATION_DATE  = 
ORIGINATOR     = 

OBJECT_NAME    = STARLINK-36146
OBJECT_ID      = 2026-005Y
CENTER_NAME    = EARTH
REF_FRAME      = TEME
TIME_SYSTEM    = UTC
MEAN_ELEMENT_THEORY = SGP/SGP4

EPOCH          = 2026-02-05T10:36:17.769312
MEAN_MOTION    = 15.50646518
ECCENTRICITY   = .0001454
INCLINATION    = 42.9996
RA_OF_ASC_NODE = 62.7815
ARG_OF_PERICENTER = 274.1573
MEAN_ANOMALY   = 85.9121

EPHEMERIS_TYPE = 0
CLASSIFICATION_TYPE = U
NORAD_CAT_ID   = 67426
ELEMENT_SET_NO = 999
REV_AT_EPOCH   = 372
BSTAR          = .24478E-2
MEAN_MOTION_DOT = .146327E-2
MEAN_MOTION_DDOT = 0

CCSDS_OMM_VERS = 2.0
CREATION_DATE  = 
ORIGINATOR     = 

OBJECT_NAME    = STARLINK-36459
OBJECT_ID      = 2026-005Z
CENTER_NAME    = EARTH
REF_FRAME      = TEME
TIME_SYSTEM    = UTC
MEAN_ELEMENT_THEORY = SGP/SGP4

EPOCH          = 2026-02-05T10:35:48.236064
MEAN_MOTION    = 15.50641446
ECCENTRICITY   = .0001442
INCLINATION    = 42.9995
RA_OF_ASC_NODE = 62.7781
ARG_OF_PERICENTER = 269.5284
MEAN_ANOMALY   = 90.5411

EPHEMERIS_TYPE = 0
CLASSIFICATION_TYPE = U
NORAD_CAT_ID   = 67427
ELEMENT_SET_NO = 999
REV_AT_EPOCH   = 372
BSTAR          = .2483E-2
MEAN_MOTION_DOT = .148451E-2
MEAN_MOTION_DDOT = 0

CCSDS_OMM_VERS = 2.0
CREATION_DATE  = 
ORIGINATOR     = 

OBJECT_NAME    = STARLINK-36464
OBJECT_ID      = 2026-005AA
CENTER_NAME    = EARTH
REF_FRAME      = TEME
TIME_SYSTEM    = UTC
MEAN_ELEMENT_THEORY = SGP/SGP4

EPOCH          = 2026-02-05T10:34:48.944928
MEAN_MOTION    = 15.50643660
ECCENTRICITY   = .0001302
INCLINATION    = 42.9995
RA_OF_ASC_NODE = 62.7727
ARG_OF_PERICENTER = 270.4372
MEAN_ANOMALY   = 89.6339

EPHEMERIS_TYPE = 0
CLASSIFICATION_TYPE = U
NORAD_CAT_ID   = 67428
ELEMENT_SET_NO = 999
REV_AT_EPOCH   = 372
BSTAR          = .25233E-2
MEAN_MOTION_DOT = .150923E-2
MEAN_MOTION_DDOT = 0

CCSDS_OMM_VERS = 2.0
CREATION_DATE  = 
ORIGINATOR     = 

OBJECT_NAME    = STARLINK-36513
OBJECT_ID      = 2026-005AB
CENTER_NAME    = EARTH
REF_FRAME      = TEME
TIME_SYSTEM    = UTC
MEAN_ELEMENT_THEORY = SGP/SGP4

EPOCH          = 2026-02-05T10:34:19.352064
MEAN_MOTION    = 15.50617150
ECCENTRICITY   = .0000947
INCLINATION    = 42.9999
RA_OF_ASC_NODE = 62.7695
ARG_OF_PERICENTER = 274.3033
MEAN_ANOMALY   = 85.7719

EPHEMERIS_TYPE = 0
CLASSIFICATION_TYPE = U
NORAD_CAT_ID   = 67429
ELEMENT_SET_NO = 999
REV_AT_EPOCH   = 372
BSTAR          = .11953E-2
MEAN_MOTION_DOT = .7051E-3
MEAN_MOTION_DDOT = 0

