STARLINK-36455          
1 67418U 26005Q   26036.44461580  .00105621  00000+0  17786-2 0  9993
2 67418  42.9997  62.8029 0001313 266.7044  93.3666 15.50633431  3739
STARLINK-36424          
1 67419U 26005R   26036.44427453  .00122712  00000+0  20608-2 0  9992
2 67419  42.9992  62.8009 0001153 271.0039  89.0689 15.50634885  3739
STARLINK-35564          
1 67420U 26005S   26036.44393105  .00068120  00000+0  11553-2 0  9991
2 67420  42.9998  62.7987 0001365 271.4690  88.6014 15.50618663  3736
STARLINK-36431          
1 67421U 26005T   26036.50002314  .00153751  00000+0  36248-2 0  9991
2 67421  43.0006  62.6138 0001139 282.6074 333.1355 15.40611294  4802
STARLINK-36418          
1 67422U 26005U   26036.44324631  .00140180  00000+0  23478-2 0  9997
2 67422  42.9996  62.7931 0001157 275.6384  84.4345 15.50637738  3735
STARLINK-36465          
1 67423U 26005V   26036.50002314  .00142102  00000+0  33627-2 0  9999
2 67423  43.0001  62.5528 0001461 314.7833 325.8302 15.40550136  4750
STARLINK-36362          
1 67424U 26005W   26036.50002314 -.01657915  00000+0 -40419-1 0  9992
2 67424  43.0000  62.5027 0000706 314.8036 347.2103 15.43504870  5015
STARLINK-36447          
1 67425U 26005X   26036.50002314 -.02006851  00000+0 -44231-1 0  9997
2 67425  43.0001  62.4648 0001003 279.6456  37.0056 15.46523699  5014
STARLINK-36146          
1 67426U 26005Y   26036.44187233  .00146327  00000+0  24478-2 0  9996
2 67426  42.9996  62.7815 0001454 274.1573  85.9121 15.50646518  3727
STARLINK-36459          
1 67427U 26005Z   26036.44153051  .00148451  00000+0  24830-2 0  9990
2 67427  42.9995  62.7781 0001442 269.5284  90.5411 15.50641446  3722
STARLINK-36464          
1 67428U 26005AA  26036.44084427  .00150923  00000+0  25233-2 0  9996
2 67428  42.9995  62.7727 0001302 270.4372  89.6339 15.50643660  3725
STARLINK-36513          
1 67429U 26005AB  26036.44050176  .00070510  00000+0  11953-2 0  9998
2 67429  42.9999  62.7695 0000947 274.3033  85.7719 15.50617150  3729
